{"fetched_at":"2026-03-29T16:36:15Z","count":15609,"tles":[{"name":"STARLINK-5333","line1":"1 56507U 23065E   26087.65709933  .00000300  00000+0  37240-4 0  9996","line2":"2 56507  43.0042  68.6098 0001509 278.0781  81.9890 15.02548652159922","category":"Starlink"}]}