{
  "norad_id": 56507,
  "name": "STARLINK-5333",
  "history": [
    {
      "epoch": "2026-03-28T15:46:13.382112",
      "apogee_km": 560.0875496043309,
      "perigee_km": 557.9936319203343,
      "latitude_deg": 18.777569972932906,
      "longitude_deg": -106.21846432005987,
      "semi_major_axis_km": 6937.177590762332,
      "eccentricity": 0.00015092,
      "inclination_deg": 43.0042,
      "raan_deg": 68.6098,
      "arg_perigee_deg": 278.0781,
      "mean_anomaly_deg": 81.989,
      "mean_motion_rev_day": 15.02548652
    }
  ]
}